{
  "norad_id": 66291,
  "name": "STARLINK-35800",
  "history": [
    {
      "epoch": "2026-03-28T17:30:49.839264Z",
      "apogee_km": 476.13747826220697,
      "perigee_km": 474.2281433629141,
      "latitude_deg": 1.2603732110556174e-05,
      "longitude_deg": 13.800941906206221,
      "height_km": 476.15633396508514,
      "semi_major_axis_km": 6853.31981081256,
      "eccentricity": 0.0001393,
      "inclination_deg": 53.1582,
      "raan_deg": 102.6546,
      "arg_perigee_deg": 94.5543,
      "mean_anomaly_deg": 265.5617,
      "mean_motion_rev_day": 15.30210804
    },
    {
      "epoch": "2026-03-29T04:29:12.125760Z",
      "apogee_km": 475.8924821578039,
      "perigee_km": 474.54100079998443,
      "latitude_deg": 5.01885327696739e-06,
      "longitude_deg": -153.3703633944589,
      "height_km": 475.60155997256123,
      "semi_major_axis_km": 6853.353741478893,
      "eccentricity": 9.86e-05,
      "inclination_deg": 53.1574,
      "raan_deg": 100.5268,
      "arg_perigee_deg": 40.502,
      "mean_anomaly_deg": 319.6054,
      "mean_motion_rev_day": 15.3019944
    },
    {
      "epoch": "2026-03-30T00:51:53.810208Z",
      "apogee_km": 475.8209574098619,
      "perigee_km": 474.5010122179865,
      "latitude_deg": -1.1380131102485238e-05,
      "longitude_deg": -103.8221651705221,
      "height_km": 475.6821681731445,
      "semi_major_axis_km": 6853.297984813924,
      "eccentricity": 9.63e-05,
      "inclination_deg": 53.1581,
      "raan_deg": 96.5856,
      "arg_perigee_deg": 55.127,
      "mean_anomaly_deg": 304.9821,
      "mean_motion_rev_day": 15.30218114
    },
    {
      "epoch": "2026-03-30T07:08:06.660384Z",
      "apogee_km": 476.1933087984353,
      "perigee_km": 474.2784764122407,
      "latitude_deg": 2.1096198407583666e-05,
      "longitude_deg": 160.65320748049638,
      "height_km": 476.11431360877714,
      "semi_major_axis_km": 6853.372892605337,
      "eccentricity": 0.0001397,
      "inclination_deg": 53.158,
      "raan_deg": 95.372,
      "arg_perigee_deg": 88.8474,
      "mean_anomaly_deg": 271.2687,
      "mean_motion_rev_day": 15.30193026
    },
    {
      "epoch": "2026-03-31T09:47:00.991104Z",
      "apogee_km": 476.1416576661013,
      "perigee_km": 474.33236692685387,
      "latitude_deg": 8.115089993528112e-06,
      "longitude_deg": 114.67490925796714,
      "height_km": 476.1117710162673,
      "semi_major_axis_km": 6853.374012296477,
      "eccentricity": 0.000132,
      "inclination_deg": 53.1582,
      "raan_deg": 90.2145,
      "arg_perigee_deg": 88.5399,
      "mean_anomaly_deg": 271.5753,
      "mean_motion_rev_day": 15.30192651
    },
    {
      "epoch": "2026-04-01T09:17:49.019424Z",
      "apogee_km": 476.0712622030496,
      "perigee_km": 474.33462586123096,
      "latitude_deg": 6.0016285001612624e-05,
      "longitude_deg": 116.4567726275706,
      "height_km": 475.8845306750324,
      "semi_major_axis_km": 6853.33994403214,
      "eccentricity": 0.0001267,
      "inclination_deg": 53.1587,
      "raan_deg": 85.6621,
      "arg_perigee_deg": 75.5685,
      "mean_anomaly_deg": 284.5457,
      "mean_motion_rev_day": 15.30204061
    },
    {
      "epoch": "2026-04-02T16:38:52.666368Z",
      "apogee_km": 476.09061309492154,
      "perigee_km": 474.17841327731367,
      "latitude_deg": -7.134120459835451e-06,
      "longitude_deg": -1.1646121196091317,
      "height_km": 476.1096196277911,
      "semi_major_axis_km": 6853.271513186118,
      "eccentricity": 0.00013951,
      "inclination_deg": 53.1594,
      "raan_deg": 79.5935,
      "arg_perigee_deg": 94.6345,
      "mean_anomaly_deg": 265.4815,
      "mean_motion_rev_day": 15.3022698
    },
    {
      "epoch": "2026-04-03T16:09:40.999680Z",
      "apogee_km": 476.4060776647875,
      "perigee_km": 474.03207511992423,
      "latitude_deg": -1.1278331049546926e-05,
      "longitude_deg": 0.6182340669540869,
      "height_km": 476.0911043632986,
      "semi_major_axis_km": 6853.356076392355,
      "eccentricity": 0.0001732,
      "inclination_deg": 53.16,
      "raan_deg": 75.0434,
      "arg_perigee_deg": 88.7738,
      "mean_anomaly_deg": 271.3461,
      "mean_motion_rev_day": 15.30198658
    },
    {
      "epoch": "2026-04-04T07:50:13.251264Z",
      "apogee_km": 476.02076796808524,
      "perigee_km": 474.3713077725306,
      "latitude_deg": 2.6527563038932757e-05,
      "longitude_deg": 121.80810523717841,
      "height_km": 476.19286004469996,
      "semi_major_axis_km": 6853.333037870308,
      "eccentricity": 0.00012034,
      "inclination_deg": 53.1608,
      "raan_deg": 72.0114,
      "arg_perigee_deg": 96.8637,
      "mean_anomaly_deg": 263.2501,
      "mean_motion_rev_day": 15.30206374
    },
    {
      "epoch": "2026-04-05T07:21:01.001376Z",
      "apogee_km": 476.2201329399959,
      "perigee_km": 474.29844062118264,
      "latitude_deg": -6.091752354826494e-06,
      "longitude_deg": 123.59236551044243,
      "height_km": 475.9377273282699,
      "semi_major_axis_km": 6853.396286780589,
      "eccentricity": 0.0001402,
      "inclination_deg": 53.1612,
      "raan_deg": 67.4603,
      "arg_perigee_deg": 76.7864,
      "mean_anomaly_deg": 283.3293,
      "mean_motion_rev_day": 15.30185191
    },
    {
      "epoch": "2026-04-05T21:27:29.762208Z",
      "apogee_km": 476.26751674165007,
      "perigee_km": 474.1073488804268,
      "latitude_deg": -2.0711920592226306e-05,
      "longitude_deg": -91.33697776001648,
      "height_km": 475.8884338231921,
      "semi_major_axis_km": 6853.324432811038,
      "eccentricity": 0.0001576,
      "inclination_deg": 53.1609,
      "raan_deg": 64.7302,
      "arg_perigee_deg": 79.502,
      "mean_anomaly_deg": 280.6158,
      "mean_motion_rev_day": 15.30209256
    },
    {
      "epoch": "2026-04-06T02:09:39.297024Z",
      "apogee_km": 475.49834664991795,
      "perigee_km": 474.9559714103725,
      "latitude_deg": 6.581165926737521e-05,
      "longitude_deg": -162.98077302567205,
      "height_km": 475.8769538816747,
      "semi_major_axis_km": 6853.364159030145,
      "eccentricity": 3.957e-05,
      "inclination_deg": 53.1611,
      "raan_deg": 63.8192,
      "arg_perigee_deg": 337.3131,
      "mean_anomaly_deg": 22.7853,
      "mean_motion_rev_day": 15.30195951
    },
    {
      "epoch": "2026-04-07T04:48:33.823008Z",
      "apogee_km": 476.1093297805792,
      "perigee_km": 474.2570144044648,
      "latitude_deg": 7.153298718025228e-05,
      "longitude_deg": 151.04222263041032,
      "height_km": 475.887463930303,
      "semi_major_axis_km": 6853.320172092522,
      "eccentricity": 0.00013514,
      "inclination_deg": 53.1604,
      "raan_deg": 58.6638,
      "arg_perigee_deg": 77.9245,
      "mean_anomaly_deg": 282.1908,
      "mean_motion_rev_day": 15.30210683
    },
    {
      "epoch": "2026-04-09T21:04:45.378336Z",
      "apogee_km": 475.95952855080304,
      "perigee_km": 474.24621858241153,
      "latitude_deg": 6.656630975470355e-05,
      "longitude_deg": -108.08430629127308,
      "height_km": 476.13692197205114,
      "semi_major_axis_km": 6853.2398735666075,
      "eccentricity": 0.000125,
      "inclination_deg": 53.1585,
      "raan_deg": 46.2249,
      "arg_perigee_deg": 99.1404,
      "mean_anomaly_deg": 260.9739,
      "mean_motion_rev_day": 15.30237577
    },
    {
      "epoch": "2026-04-10T12:45:16.432416Z",
      "apogee_km": 475.9459078933469,
      "perigee_km": 474.3093483001576,
      "latitude_deg": 4.129591122565798e-05,
      "longitude_deg": 13.108819860510097,
      "height_km": 476.04112991397835,
      "semi_major_axis_km": 6853.264628096752,
      "eccentricity": 0.0001194,
      "inclination_deg": 53.1564,
      "raan_deg": 43.1912,
      "arg_perigee_deg": 91.0997,
      "mean_anomaly_deg": 269.0141,
      "mean_motion_rev_day": 15.30229286
    },
    {
      "epoch": "2026-04-11T20:06:20.723040Z",
      "apogee_km": 476.11606573420613,
      "perigee_km": 474.3232276354338,
      "latitude_deg": 8.131791700395315e-05,
      "longitude_deg": -104.51667804310677,
      "height_km": 476.03852395337907,
      "semi_major_axis_km": 6853.35664668482,
      "eccentricity": 0.0001308,
      "inclination_deg": 53.1592,
      "raan_deg": 37.1211,
      "arg_perigee_deg": 84.9405,
      "mean_anomaly_deg": 275.1746,
      "mean_motion_rev_day": 15.30198467
    },
    {
      "epoch": "2026-04-13T01:53:21.341472Z",
      "apogee_km": 475.780952199113,
      "perigee_km": 474.6365805230471,
      "latitude_deg": -2.1846624418810132e-05,
      "longitude_deg": 161.74330248538857,
      "height_km": 475.9883005411373,
      "semi_major_axis_km": 6853.34576636108,
      "eccentricity": 8.349e-05,
      "inclination_deg": 53.1606,
      "raan_deg": 31.3569,
      "arg_perigee_deg": 77.9739,
      "mean_anomaly_deg": 282.1355,
      "mean_motion_rev_day": 15.30202111
    },
    {
      "epoch": "2026-04-14T18:38:44.456352Z",
      "apogee_km": 476.5190811949378,
      "perigee_km": 473.8956209773414,
      "latitude_deg": -4.88457181566624e-06,
      "longitude_deg": -99.16440188852918,
      "height_km": 476.1069331364964,
      "semi_major_axis_km": 6853.344351086139,
      "eccentricity": 0.0001914,
      "inclination_deg": 53.1608,
      "raan_deg": 23.4693,
      "arg_perigee_deg": 90.1018,
      "mean_anomaly_deg": 270.0202,
      "mean_motion_rev_day": 15.30202585
    },
    {
      "epoch": "2026-04-15T11:53:19.553280Z",
      "apogee_km": 476.2653632214551,
      "perigee_km": 474.1889309521712,
      "latitude_deg": -2.3501446516366166e-05,
      "longitude_deg": -1.8551998651249795,
      "height_km": 476.10964423415606,
      "semi_major_axis_km": 6853.364147086813,
      "eccentricity": 0.00015149,
      "inclination_deg": 53.1601,
      "raan_deg": 20.1329,
      "arg_perigee_deg": 89.1583,
      "mean_anomaly_deg": 270.9591,
      "mean_motion_rev_day": 15.30195955
    }
  ]
}